NORAD_CAT_ID,OBJECT_NAME,OBJECT_TYPE,EPOCH,MEAN_MOTION,ECCENTRICITY,INCLINATION,RA_OF_ASC_NODE,ARG_OF_PERICENTER,MEAN_ANOMALY,BSTAR,MEAN_MOTION_DOT,MEAN_MOTION_DDOT,TLE_LINE0,TLE_LINE1,TLE_LINE2,SEMIMAJOR_AXIS,PERIOD,APOGEE,PERIGEE,DECAYED
53141.0,STARLINK-4103,PAYLOAD,2023-06-26 00:08:17,15.08832881,8.89e-05,53.2172,288.0061,91.9699,268.1395,-4.7621e-05,-1.045e-05,0.0,0 STARLINK-4103,1 53141U 22083K   23177.00575673 -.00001045  00000-0 -47621-4 0  9998,2 53141  53.2172 288.0061 0000889  91.9699 268.1395 15.08832881 52745,6917.902,95.438,540.382,539.152,0.0
53141.0,STARLINK-4103,PAYLOAD,2023-06-27 11:06:48,15.08816827,0.0001302,53.2167,281.4657,86.124,273.9901,-0.00019803,-3.436e-05,0.0,0 STARLINK-4103,1 53141U 22083K   23178.46305953 -.00003436  00000-0 -19803-3 0  9997,2 53141  53.2167 281.4657 0001302  86.1240 273.9901 15.08816827 52969,6917.951,95.439,540.717,538.916,0.0
53141.0,STARLINK-4103,PAYLOAD,2023-06-27 23:49:53,15.08831955,0.0001133,53.2169,279.0895,97.3745,262.7376,5.8055e-05,6.36e-06,0.0,0 STARLINK-4103,1 53141U 22083K   23178.99297787  .00000636  00000-0  58055-4 0  9990,2 53141  53.2169 279.0895 0001133  97.3745 262.7376 15.08831955 53045,6917.905,95.438,540.554,538.986,0.0
53141.0,STARLINK-4103,PAYLOAD,2023-06-28 10:57:35,15.08844014,0.0001046,53.2162,277.0067,101.2203,258.8907,0.00041981,6.4e-05,0.0,0 STARLINK-4103,1 53141U 22083K   23179.45665537  .00006400  00000-0  41981-3 0  9998,2 53141  53.2162 277.0067 0001046 101.2203 258.8907 15.08844014 53118,6917.868,95.437,540.457,539.01,0.0
53141.0,STARLINK-4103,PAYLOAD,2023-06-29 15:34:30,15.08870167,9.33e-05,53.2152,271.6528,95.8472,264.2626,0.00070807,0.00011008,0.0,0 STARLINK-4103,1 53141U 22083K   23180.64896476  .00011008  00000-0  70807-3 0  9998,2 53141  53.2152 271.6528 0000933  95.8472 264.2626 15.08870167 53295,6917.788,95.436,540.299,539.008,0.0
53141.0,STARLINK-4103,PAYLOAD,2023-06-30 12:14:30,15.08856285,0.0001076,53.2155,267.7878,91.9593,268.1523,0.00010198,1.336e-05,0.0,0 STARLINK-4103,1 53141U 22083K   23181.51007934  .00001336  00000-0  10198-3 0  9998,2 53141  53.2155 267.7878 0001076  91.9593 268.1523 15.08856285 53421,6917.831,95.437,540.44,538.951,0.0
53141.0,STARLINK-4103,PAYLOAD,2023-07-01 08:54:32,15.08837036,0.000106,53.2152,263.9223,90.0398,270.0716,-0.00016545,-2.92e-05,0.0,0 STARLINK-4103,1 53141U 22083K   23182.37120388 -.00002920  00000-0 -16545-3 0  9996,2 53141  53.2152 263.9223 0001060  90.0398 270.0716 15.08837036 53559,6917.889,95.438,540.488,539.021,0.0
53141.0,STARLINK-4103,PAYLOAD,2023-07-02 10:20:42,15.08842532,0.0001128,53.2162,259.164,81.9409,278.1711,2.5897e-05,1.24e-06,0.0,0 STARLINK-4103,1 53141U 22083K   23183.43104410  .00000124  00000-0  25897-4 0  9995,2 53141  53.2162 259.1640 0001128  81.9409 278.1711 15.08842532 53716,6917.873,95.437,540.518,538.957,0.0
53141.0,STARLINK-4103,PAYLOAD,2023-07-03 11:46:52,15.08839674,0.0001109,53.2164,254.4067,71.5155,288.5958,0.00015494,2.179e-05,0.0,0 STARLINK-4103,1 53141U 22083K   23184.49088518  .00002179  00000-0  15494-3 0  9995,2 53141  53.2164 254.4067 0001109  71.5155 288.5958 15.08839674 53879,6917.881,95.438,540.514,538.979,0.0
53141.0,STARLINK-4103,PAYLOAD,2023-07-04 10:02:15,15.08855262,0.0001079,53.2163,250.2436,76.1692,283.942,0.0001841,2.645e-05,0.0,0 STARLINK-4103,1 53141U 22083K   23185.41823242  .00002645  00000-0  18410-3 0  9998,2 53141  53.2163 250.2436 0001079  76.1692 283.9420 15.08855262 54016,6917.834,95.437,540.445,538.952,0.0
53141.0,STARLINK-4103,PAYLOAD,2023-07-04 21:09:57,15.08844129,0.000125,53.2165,248.1613,79.1836,280.9296,7.6679e-05,9.33e-06,0.0,0 STARLINK-4103,1 53141U 22083K   23185.88191977  .00000933  00000-0  76679-4 0  9992,2 53141  53.2165 248.1613 0001250  79.1836 280.9296 15.08844129 54080,6917.868,95.437,540.598,538.868,0.0
53141.0,STARLINK-4103,PAYLOAD,2023-07-05 08:17:41,15.0882892,0.0001509,53.2174,246.0813,87.2685,272.848,-3.5129e-05,-8.47e-06,0.0,0 STARLINK-4103,1 53141U 22083K   23186.34561483 -.00000847  00000-0 -35129-4 0  9998,2 53141  53.2174 246.0813 0001509  87.2685 272.8480 15.08828920 54152,6917.914,95.438,540.823,538.735,0.0
53141.0,STARLINK-4103,PAYLOAD,2023-07-06 04:57:41,15.08832125,0.0002046,53.2173,242.2154,112.1229,247.998,3.0245e-05,1.93e-06,0.0,0 STARLINK-4103,1 53141U 22083K   23187.20673199  .00000193  00000-0  30245-4 0  9998,2 53141  53.2173 242.2154 0002046 112.1229 247.9980 15.08832125 54280,6917.904,95.438,541.185,538.354,0.0
53141.0,STARLINK-4103,PAYLOAD,2023-07-06 12:54:36,15.0884302,0.0001158,53.2166,240.7279,94.3156,265.7968,-3.6762e-05,-8.73e-06,0.0,0 STARLINK-4103,1 53141U 22083K   23187.53792796 -.00000873  00000-0 -36762-4 0  9996,2 53141  53.2166 240.7279 0001158  94.3156 265.7968 15.08843020 54332,6917.871,95.437,540.537,538.935,0.0
53141.0,STARLINK-4103,PAYLOAD,2023-07-07 20:42:20,15.08840457,0.0001028,53.2146,234.7804,90.7744,269.3366,0.00023252,3.415e-05,0.0,0 STARLINK-4103,1 53141U 22083K   23188.86273320  .00003415  00000-0  23252-3 0  9992,2 53141  53.2146 234.7804 0001028  90.7744 269.3366 15.08840457 54531,6917.879,95.438,540.455,539.033,0.0
53141.0,STARLINK-4103,PAYLOAD,2023-07-09 02:54:39,15.08838581,0.00011,53.2148,229.1295,90.3252,269.7867,0.00011945,1.614e-05,0.0,0 STARLINK-4103,1 53141U 22083K   23190.12129486  .00001614  00000-0  11945-3 0  9992,2 53141  53.2148 229.1295 0001100  90.3252 269.7867 15.08838581 54722,6917.885,95.438,540.511,538.989,0.0
53141.0,STARLINK-4103,PAYLOAD,2023-07-10 12:17:45,15.08840616,0.0001025,53.2155,222.8858,81.5888,278.522,7.191e-05,8.57e-06,0.0,0 STARLINK-4103,1 53141U 22083K   23191.51233242  .00000857  00000-0  71910-4 0  9999,2 53141  53.2155 222.8858 0001025  81.5888 278.5220 15.08840616 54934,6917.879,95.438,540.453,539.034,0.0
53141.0,STARLINK-4103,PAYLOAD,2023-07-11 02:36:14,15.08834799,0.0001007,53.2154,220.2092,80.1323,279.9783,3.5429e-05,2.76e-06,0.0,0 STARLINK-4103,1 53141U 22083K   23192.10849796  .00000276  00000-0  35429-4 0  9992,2 53141  53.2154 220.2092 0001007  80.1323 279.9783 15.08834799 55029,6917.896,95.438,540.458,539.065,0.0
53141.0,STARLINK-4103,PAYLOAD,2023-07-11 18:30:04,15.08850342,0.0001212,53.2174,217.2351,93.5474,266.5656,7.9015e-05,9.7e-06,0.0,0 STARLINK-4103,1 53141U 22083K   23192.77088664  .00000970  00000-0  79015-4 0  9994,2 53141  53.2174 217.2351 0001212  93.5474 266.5656 15.08850342 55122,6917.849,95.437,540.552,538.875,0.0
53141.0,STARLINK-4103,PAYLOAD,2023-07-12 10:23:57,15.08834056,0.0001254,53.2159,214.262,87.7112,272.4024,-1.7396e-05,-5.65e-06,0.0,0 STARLINK-4103,1 53141U 22083K   23193.43330028 -.00000565  00000-0 -17396-4 0  9998,2 53141  53.2159 214.2620 0001254  87.7112 272.4024 15.08834056 55221,6917.899,95.438,540.631,538.896,0.0
53141.0,STARLINK-4103,PAYLOAD,2023-07-13 18:11:40,15.0883949,0.000124,53.2156,208.3143,95.2994,264.814,-1.3311e-05,-5e-06,0.0,0 STARLINK-4103,1 53141U 22083K   23194.75810195 -.00000500  00000-0 -13311-4 0  9994,2 53141  53.2156 208.3143 0001240  95.2994 264.8140 15.08839490 55422,6917.882,95.438,540.605,538.889,0.0
53141.0,STARLINK-4103,PAYLOAD,2023-07-15 00:23:59,15.08840871,0.0001435,53.2156,202.664,92.9456,267.17,0.00017911,2.564e-05,0.0,0 STARLINK-4103,1 53141U 22083K   23196.01666196  .00002564  00000-0  17911-3 0  9994,2 53141  53.2156 202.6640 0001435  92.9456 267.1700 15.08840871 55618,6917.878,95.437,540.735,538.75,0.0
53141.0,STARLINK-4103,PAYLOAD,2023-07-16 00:14:46,15.08841485,0.0001445,53.2141,198.2035,92.1984,267.9174,0.00012726,1.738e-05,0.0,0 STARLINK-4103,1 53141U 22083K   23197.01026455  .00001738  00000-0  12726-3 0  9994,2 53141  53.2141 198.2035 0001445  92.1984 267.9174 15.08841485 55760,6917.876,95.437,540.74,538.741,0.0
53141.0,STARLINK-4103,PAYLOAD,2023-07-17 06:27:05,15.08848713,0.000146,53.2156,192.5538,91.1343,268.9816,9.4749e-05,1.221e-05,0.0,0 STARLINK-4103,1 53141U 22083K   23198.26881729  .00001221  00000-0  94749-4 0  9998,2 53141  53.2156 192.5538 0001460  91.1343 268.9816 15.08848713 55952,6917.854,95.437,540.729,538.709,0.0
53141.0,STARLINK-4103,PAYLOAD,2023-07-17 23:56:20,15.08837579,0.0001556,53.2161,189.2833,91.4615,268.6555,6.0684e-05,6.78e-06,0.0,0 STARLINK-4103,1 53141U 22083K   23198.99746444  .00000678  00000-0  60684-4 0  9998,2 53141  53.2161 189.2833 0001556  91.4615 268.6555 15.08837579 56068,6917.888,95.438,540.829,538.676,0.0
53141.0,STARLINK-4103,PAYLOAD,2023-07-19 02:57:54,15.08841183,0.0001531,53.2165,184.2276,97.7567,262.3599,2.7072e-05,1.43e-06,0.0,0 STARLINK-4103,1 53141U 22083K   23200.12354216  .00000143  00000-0  27072-4 0  9990,2 53141  53.2165 184.2276 0001531  97.7567 262.3599 15.08841183 56230,6917.877,95.437,540.801,538.683,0.0
53141.0,STARLINK-4103,PAYLOAD,2023-07-20 07:34:51,15.08833255,0.0001391,53.2162,178.8747,92.4361,267.679,2.624e-05,1.3e-06,0.0,0 STARLINK-4103,1 53141U 22083K   23201.31587058  .00000130  00000-0  26240-4 0  9996,2 53141  53.2162 178.8747 0001391  92.4361 267.6790 15.08833255 56419,6917.901,95.438,540.728,538.804,0.0
53141.0,STARLINK-4103,PAYLOAD,2023-07-21 07:25:37,15.08844207,0.0001334,53.2159,174.4135,91.2848,268.8297,8.6313e-05,1.086e-05,0.0,0 STARLINK-4103,1 53141U 22083K   23202.30946296  .00001086  00000-0  86313-4 0  9997,2 53141  53.2159 174.4135 0001334  91.2848 268.8297 15.08844207 56562,6917.868,95.437,540.655,538.81,0.0
53141.0,STARLINK-4103,PAYLOAD,2023-07-24 06:57:59,15.08838103,0.0001449,53.2166,161.0318,99.0906,261.025,1.5452e-05,-4.2e-07,0.0,0 STARLINK-4103,1 53141U 22083K   23205.29026959 -.00000042  00000-0  15452-4 0  9991,2 53141  53.2166 161.0318 0001449  99.0906 261.0250 15.08838103 56385,6917.886,95.438,540.754,538.749,0.0
53141.0,STARLINK-4103,PAYLOAD,2023-07-25 06:48:46,15.08844066,0.0001531,53.2171,156.5707,103.8015,256.3148,-5.6371e-05,-1.185e-05,0.0,0 STARLINK-4103,1 53141U 22083K   23206.28386886 -.00001185  00000-0 -56371-4 0  9994,2 53141  53.2171 156.5707 0001531 103.8015 256.3148 15.08844066 56534,6917.868,95.437,540.792,538.674,0.0
